[{"OBJECT_NAME":"STARLINK-36399","OBJECT_ID":"2026-022T","EPOCH":"2026-03-09T22:00:01.999584","MEAN_MOTION":15.71792119,"ECCENTRICITY":0.00016834,"INCLINATION":97.2851,"RA_OF_ASC_NODE":102.9352,"ARG_OF_PERICENTER":72.1308,"MEAN_ANOMALY":36.5524,"EPHEMERIS_TYPE":0,"CLASSIFICATION_TYPE":"U","NORAD_CAT_ID":67665,"ELEMENT_SET_NO":999,"REV_AT_EPOCH":608,"BSTAR":-0.016767804,"MEAN_MOTION_DOT":-0.01884345,"MEAN_MOTION_DDOT":0},{"OBJECT_NAME":"PEGASUS DEB","OBJECT_ID":"1994-029AGA","EPOCH":"2026-03-08T23:03:30.835584","MEAN_MOTION":15.53864705,"ECCENTRICITY":0.00172183,"INCLINATION":81.7949,"RA_OF_ASC_NODE":302.6073,"ARG_OF_PERICENTER":170.3356,"MEAN_ANOMALY":189.823,"EPHEMERIS_TYPE":0,"CLASSIFICATION_TYPE":"U","NORAD_CAT_ID":39927,"ELEMENT_SET_NO":999,"REV_AT_EPOCH":64162,"BSTAR":0.0015622309,"MEAN_MOTION_DOT":0.00102235,"MEAN_MOTION_DDOT":0}]
